QIANFAN-86              
1 63172U 25046P   26061.76698214  .00000190  00000+0  27597-3 0  9996
2 63172  88.9767 311.5205 0009295 262.2806  97.7290 13.51000553 58352
QIANFAN-87              
1 63173U 25046Q   26061.73827835  .00000187  00000+0  27154-3 0  9992
2 63173  88.9763 311.6320 0009956 256.4304 103.5738 13.51008852 58285
QIANFAN-88              
1 63174U 25046R   26061.75457771  .00000202  00000+0  29481-3 0  9996
2 63174  88.9766 311.5869 0010377 266.0046  93.9919 13.50997280 58313
QIANFAN-89              
1 63175U 25046S   26061.79178806  .00000185  00000+0  26803-3 0  9995
2 63175  88.9767 311.7722 0014823 254.5984 105.3529 13.51007706 58218
QIANFAN-90              
1 63176U 25046T   26061.74656029  .00000201  00000+0  29302-3 0  9995
2 63176  88.9766 311.7493 0011770 253.0082 106.9780 13.51007590 58222
QIANFAN-91              
1 66033U 25233A   26061.77909329  .00000071  00000+0  91754-4 0  9991
2 66033  88.9924  53.9501 0001905  92.8395 267.2974 13.51004386 18810
QIANFAN-92              
1 66034U 25233B   26061.78726379  .00000062  00000+0  78016-4 0  9991
2 66034  88.9908  53.9384 0001949  85.6425 274.4949 13.50996410 18813
QIANFAN-93              
1 66035U 25233C   26061.79549378  .00000049  00000+0  57790-4 0  9996
2 66035  88.9935  53.9605 0001900  90.9983 269.1386 13.51004691 18813
QIANFAN-94              
1 66036U 25233D   26061.78296427  .00000041  00000+0  44272-4 0  9993
2 66036  88.9932  53.8688 0002041  88.6110 271.5275 13.50991740 18862
QIANFAN-95              
1 66037U 25233E   26061.79075199 -.02058278  00000+0 -35247+1 0  9993
2 66037  88.9920  53.4132 0004845 155.5036 204.6345 13.48769001 19119
QIANFAN-96              
1 66038U 25233F   26061.74204850  .00000047  00000+0  53499-4 0  9997
2 66038  88.9927  53.9653 0001893  94.6369 265.4998 13.51004525 18803
QIANFAN-97              
1 66039U 25233G   26061.79963785  .00000060  00000+0  74166-4 0  9991
2 66039  88.9930  53.9401 0001899  92.0446 268.0923 13.51004039 18822
QIANFAN-98              
1 66040U 25233H   26061.80781568  .00000041  00000+0  45359-4 0  9993
2 66040  88.9919  53.6817 0002436  86.7798 273.3632 13.51004402 18962
QIANFAN-99              
1 66041U 25233J   26061.73704631 -.02011064  00000+0 -34634+1 0  9993
2 66041  88.9925  53.9502 0002931 214.9498 145.1460 13.48312239 18811
QIANFAN-100             
1 66042U 25233K   26061.80372295  .00000043  00000+0  47468-4 0  9993
2 66042  88.9942  53.8581 0001893  91.3372 268.7996 13.50996311 18875
QIANFAN-101             
1 66043U 25233L   26061.76230163  .00000598  00000+0  24075-3 0  9999
2 66043  88.9931  52.7839 0016660 127.2388 233.0328 14.26730339 19451
QIANFAN-102             
1 66044U 25233M   26061.75007418  .00000040  00000+0  42690-4 0  9990
2 66044  88.9928  53.8606 0002068  89.2227 270.9161 13.50992285 18863
