[{"OBJECT_NAME":"QIANFAN-86","OBJECT_ID":"2025-046P","EPOCH":"2026-03-02T18:24:27.256896","MEAN_MOTION":13.51000553,"ECCENTRICITY":0.0009295,"INCLINATION":88.9767,"RA_OF_ASC_NODE":311.5205,"ARG_OF_PERICENTER":262.2806,"MEAN_ANOMALY":97.729,"EPHEMERIS_TYPE":0,"CLASSIFICATION_TYPE":"U","NORAD_CAT_ID":63172,"ELEMENT_SET_NO":999,"REV_AT_EPOCH":5835,"BSTAR":0.00027597,"MEAN_MOTION_DOT":1.9e-6,"MEAN_MOTION_DDOT":0},{"OBJECT_NAME":"QIANFAN-87","OBJECT_ID":"2025-046Q","EPOCH":"2026-03-02T17:43:07.249440","MEAN_MOTION":13.51008852,"ECCENTRICITY":0.0009956,"INCLINATION":88.9763,"RA_OF_ASC_NODE":311.632,"ARG_OF_PERICENTER":256.4304,"MEAN_ANOMALY":103.5738,"EPHEMERIS_TYPE":0,"CLASSIFICATION_TYPE":"U","NORAD_CAT_ID":63173,"ELEMENT_SET_NO":999,"REV_AT_EPOCH":5828,"BSTAR":0.00027154,"MEAN_MOTION_DOT":1.87e-6,"MEAN_MOTION_DDOT":0},{"OBJECT_NAME":"QIANFAN-88","OBJECT_ID":"2025-046R","EPOCH":"2026-03-02T18:06:35.514144","MEAN_MOTION":13.5099728,"ECCENTRICITY":0.0010377,"INCLINATION":88.9766,"RA_OF_ASC_NODE":311.5869,"ARG_OF_PERICENTER":266.0046,"MEAN_ANOMALY":93.9919,"EPHEMERIS_TYPE":0,"CLASSIFICATION_TYPE":"U","NORAD_CAT_ID":63174,"ELEMENT_SET_NO":999,"REV_AT_EPOCH":5831,"BSTAR":0.00029481,"MEAN_MOTION_DOT":2.02e-6,"MEAN_MOTION_DDOT":0},{"OBJECT_NAME":"QIANFAN-89","OBJECT_ID":"2025-046S","EPOCH":"2026-03-02T19:00:10.488384","MEAN_MOTION":13.51007706,"ECCENTRICITY":0.0014823,"INCLINATION":88.9767,"RA_OF_ASC_NODE":311.7722,"ARG_OF_PERICENTER":254.5984,"MEAN_ANOMALY":105.3529,"EPHEMERIS_TYPE":0,"CLASSIFICATION_TYPE":"U","NORAD_CAT_ID":63175,"ELEMENT_SET_NO":999,"REV_AT_EPOCH":5821,"BSTAR":0.00026803,"MEAN_MOTION_DOT":1.85e-6,"MEAN_MOTION_DDOT":0},{"OBJECT_NAME":"QIANFAN-90","OBJECT_ID":"2025-046T","EPOCH":"2026-03-02T17:55:02.809056","MEAN_MOTION":13.5100759,"ECCENTRICITY":0.001177,"INCLINATION":88.9766,"RA_OF_ASC_NODE":311.7493,"ARG_OF_PERICENTER":253.0082,"MEAN_ANOMALY":106.978,"EPHEMERIS_TYPE":0,"CLASSIFICATION_TYPE":"U","NORAD_CAT_ID":63176,"ELEMENT_SET_NO":999,"REV_AT_EPOCH":5822,"BSTAR":0.00029302,"MEAN_MOTION_DOT":2.01e-6,"MEAN_MOTION_DDOT":0},{"OBJECT_NAME":"QIANFAN-91","OBJECT_ID":"2025-233A","EPOCH":"2026-03-02T18:41:53.660256","MEAN_MOTION":13.51004386,"ECCENTRICITY":0.0001905,"INCLINATION":88.9924,"RA_OF_ASC_NODE":53.9501,"ARG_OF_PERICENTER":92.8395,"MEAN_ANOMALY":267.2974,"EPHEMERIS_TYPE":0,"CLASSIFICATION_TYPE":"U","NORAD_CAT_ID":66033,"ELEMENT_SET_NO":999,"REV_AT_EPOCH":1881,"BSTAR":9.1754e-5,"MEAN_MOTION_DOT":7.1e-7,"MEAN_MOTION_DDOT":0},{"OBJECT_NAME":"QIANFAN-92","OBJECT_ID":"2025-233B","EPOCH":"2026-03-02T18:53:39.591456","MEAN_MOTION":13.5099641,"ECCENTRICITY":0.0001949,"INCLINATION":88.9908,"RA_OF_ASC_NODE":53.9384,"ARG_OF_PERICENTER":85.6425,"MEAN_ANOMALY":274.4949,"EPHEMERIS_TYPE":0,"CLASSIFICATION_TYPE":"U","NORAD_CAT_ID":66034,"ELEMENT_SET_NO":999,"REV_AT_EPOCH":1881,"BSTAR":7.8016e-5,"MEAN_MOTION_DOT":6.2e-7,"MEAN_MOTION_DDOT":0},{"OBJECT_NAME":"QIANFAN-93","OBJECT_ID":"2025-233C","EPOCH":"2026-03-02T19:05:30.662592","MEAN_MOTION":13.51004691,"ECCENTRICITY":0.00019,"INCLINATION":88.9935,"RA_OF_ASC_NODE":53.9605,"ARG_OF_PERICENTER":90.9983,"MEAN_ANOMALY":269.1386,"EPHEMERIS_TYPE":0,"CLASSIFICATION_TYPE":"U","NORAD_CAT_ID":66035,"ELEMENT_SET_NO":999,"REV_AT_EPOCH":1881,"BSTAR":5.779e-5,"MEAN_MOTION_DOT":4.9e-7,"MEAN_MOTION_DDOT":0},{"OBJECT_NAME":"QIANFAN-94","OBJECT_ID":"2025-233D","EPOCH":"2026-03-02T18:47:28.112928","MEAN_MOTION":13.5099174,"ECCENTRICITY":0.0002041,"INCLINATION":88.9932,"RA_OF_ASC_NODE":53.8688,"ARG_OF_PERICENTER":88.611,"MEAN_ANOMALY":271.5275,"EPHEMERIS_TYPE":0,"CLASSIFICATION_TYPE":"U","NORAD_CAT_ID":66036,"ELEMENT_SET_NO":999,"REV_AT_EPOCH":1886,"BSTAR":4.4272e-5,"MEAN_MOTION_DOT":4.1e-7,"MEAN_MOTION_DDOT":0},{"OBJECT_NAME":"QIANFAN-95","OBJECT_ID":"2025-233E","EPOCH":"2026-03-02T18:58:40.971936","MEAN_MOTION":13.48769001,"ECCENTRICITY":0.0004845,"INCLINATION":88.992,"RA_OF_ASC_NODE":53.4132,"ARG_OF_PERICENTER":155.5036,"MEAN_ANOMALY":204.6345,"EPHEMERIS_TYPE":0,"CLASSIFICATION_TYPE":"U","NORAD_CAT_ID":66037,"ELEMENT_SET_NO":999,"REV_AT_EPOCH":1911,"BSTAR":-3.5247,"MEAN_MOTION_DOT":-0.02058278,"MEAN_MOTION_DDOT":0},{"OBJECT_NAME":"QIANFAN-96","OBJECT_ID":"2025-233F","EPOCH":"2026-03-02T17:48:32.990400","MEAN_MOTION":13.51004525,"ECCENTRICITY":0.0001893,"INCLINATION":88.9927,"RA_OF_ASC_NODE":53.9653,"ARG_OF_PERICENTER":94.6369,"MEAN_ANOMALY":265.4998,"EPHEMERIS_TYPE":0,"CLASSIFICATION_TYPE":"U","NORAD_CAT_ID":66038,"ELEMENT_SET_NO":999,"REV_AT_EPOCH":1880,"BSTAR":5.3499e-5,"MEAN_MOTION_DOT":4.7e-7,"MEAN_MOTION_DDOT":0},{"OBJECT_NAME":"QIANFAN-97","OBJECT_ID":"2025-233G","EPOCH":"2026-03-02T19:11:28.710240","MEAN_MOTION":13.51004039,"ECCENTRICITY":0.0001899,"INCLINATION":88.993,"RA_OF_ASC_NODE":53.9401,"ARG_OF_PERICENTER":92.0446,"MEAN_ANOMALY":268.0923,"EPHEMERIS_TYPE":0,"CLASSIFICATION_TYPE":"U","NORAD_CAT_ID":66039,"ELEMENT_SET_NO":999,"REV_AT_EPOCH":1882,"BSTAR":7.4166e-5,"MEAN_MOTION_DOT":6.0e-7,"MEAN_MOTION_DDOT":0},{"OBJECT_NAME":"QIANFAN-98","OBJECT_ID":"2025-233H","EPOCH":"2026-03-02T19:23:15.274752","MEAN_MOTION":13.51004402,"ECCENTRICITY":0.0002436,"INCLINATION":88.9919,"RA_OF_ASC_NODE":53.6817,"ARG_OF_PERICENTER":86.7798,"MEAN_ANOMALY":273.3632,"EPHEMERIS_TYPE":0,"CLASSIFICATION_TYPE":"U","NORAD_CAT_ID":66040,"ELEMENT_SET_NO":999,"REV_AT_EPOCH":1896,"BSTAR":4.5359e-5,"MEAN_MOTION_DOT":4.1e-7,"MEAN_MOTION_DDOT":0},{"OBJECT_NAME":"QIANFAN-99","OBJECT_ID":"2025-233J","EPOCH":"2026-03-02T17:41:20.801184","MEAN_MOTION":13.48312239,"ECCENTRICITY":0.0002931,"INCLINATION":88.9925,"RA_OF_ASC_NODE":53.9502,"ARG_OF_PERICENTER":214.9498,"MEAN_ANOMALY":145.146,"EPHEMERIS_TYPE":0,"CLASSIFICATION_TYPE":"U","NORAD_CAT_ID":66041,"ELEMENT_SET_NO":999,"REV_AT_EPOCH":1881,"BSTAR":-3.4634,"MEAN_MOTION_DOT":-0.02011064,"MEAN_MOTION_DDOT":0},{"OBJECT_NAME":"QIANFAN-100","OBJECT_ID":"2025-233K","EPOCH":"2026-03-02T19:17:21.662880","MEAN_MOTION":13.50996311,"ECCENTRICITY":0.0001893,"INCLINATION":88.9942,"RA_OF_ASC_NODE":53.8581,"ARG_OF_PERICENTER":91.3372,"MEAN_ANOMALY":268.7996,"EPHEMERIS_TYPE":0,"CLASSIFICATION_TYPE":"U","NORAD_CAT_ID":66042,"ELEMENT_SET_NO":999,"REV_AT_EPOCH":1887,"BSTAR":4.7468e-5,"MEAN_MOTION_DOT":4.3e-7,"MEAN_MOTION_DDOT":0},{"OBJECT_NAME":"QIANFAN-101","OBJECT_ID":"2025-233L","EPOCH":"2026-03-02T18:17:42.860832","MEAN_MOTION":14.26730339,"ECCENTRICITY":0.001666,"INCLINATION":88.9931,"RA_OF_ASC_NODE":52.7839,"ARG_OF_PERICENTER":127.2388,"MEAN_ANOMALY":233.0328,"EPHEMERIS_TYPE":0,"CLASSIFICATION_TYPE":"U","NORAD_CAT_ID":66043,"ELEMENT_SET_NO":999,"REV_AT_EPOCH":1945,"BSTAR":0.00024075,"MEAN_MOTION_DOT":5.98e-6,"MEAN_MOTION_DDOT":0},{"OBJECT_NAME":"QIANFAN-102","OBJECT_ID":"2025-233M","EPOCH":"2026-03-02T18:00:06.409152","MEAN_MOTION":13.50992285,"ECCENTRICITY":0.0002068,"INCLINATION":88.9928,"RA_OF_ASC_NODE":53.8606,"ARG_OF_PERICENTER":89.2227,"MEAN_ANOMALY":270.9161,"EPHEMERIS_TYPE":0,"CLASSIFICATION_TYPE":"U","NORAD_CAT_ID":66044,"ELEMENT_SET_NO":999,"REV_AT_EPOCH":1886,"BSTAR":4.269e-5,"MEAN_MOTION_DOT":4.0e-7,"MEAN_MOTION_DDOT":0}]
